*******************************************************************************
Ephemeris / WWW_USER Mon Mar 24 09:04:31 2025 Pasadena, USA      / Horizons    
*******************************************************************************
Target body name: (2017 UX51)                     {source: JPL#22}
Center body name: Earth (399)                     {source: DE441}
Center-site name: Mauna Kea
*******************************************************************************
Start time      : A.D. 2018-Oct-22 04:03:00.0000 UT      
Stop  time      : A.D. 2018-Oct-22 16:09:00.0000 UT      
Step-size       : 1 minutes
*******************************************************************************
Target pole/equ : undefined
Target radii    : undefined                                                    
Center geodetic : 204.5278, 19.8260847, 4.21024   {E-lon(deg),Lat(deg),Alt(km)}
Center cylindric: 204.5278, 6006.35451, 2151.0229 {E-lon(deg),Dxy(km),Dz(km)}
Center pole/equ : ITRF93                          {East-longitude positive}
Center radii    : 6378.137, 6378.137, 6356.752 km {Equator_a, b, pole_c}       
Target primary  : Sun
Vis. interferer : MOON (R_eq= 1737.400) km        {source: DE441}
Rel. light bend : Sun                             {source: DE441}
Rel. lght bnd GM: 1.3271E+11 km^3/s^2                                          
Small-body perts: Yes                             {source: SB441-N16}
Atmos refraction: NO (AIRLESS)
RA format       : HMS
Time format     : CAL 
Calendar mode   : Mixed Julian/Gregorian
RTS-only print  : NO       
EOP file        : eop.250321.p250617                                           
EOP coverage    : DATA-BASED 1962-JAN-20 TO 2025-MAR-21. PREDICTS-> 2025-JUN-16
Units conversion: 1 au= 149597870.700 km, c= 299792.458 km/s, 1 day= 86400.0 s 
Table cut-offs 1: Elevation (-90.0deg=NO ),Airmass (>38.000=NO), Daylight (YES)
Table cut-offs 2: Solar elongation (  0.0,180.0=NO ),Local Hour Angle( 0.0=NO )
Table cut-offs 3: RA/DEC angular rate (     0.0=NO )                           
*******************************************************************************
Initial IAU76/J2000 heliocentric ecliptic osculating elements (au, days, deg.):
  EPOCH=  2458433.5 ! 2018-Nov-11.00 (TDB)         Residual RMS= .12444        
   EC= .7474905367293002   QR= 7.612253692784782   TP= 2459819.8104231078      
   OM= 217.7952286585891   W=  255.0338939179157   IN= 90.52400691057457       
  Equivalent ICRF heliocentric cartesian coordinates (au, au/d):
   X= 8.209785034050050E+00  Y= 6.297741083246843E+00  Z= 1.446459094674425E+00
  VX=-3.080259200599625E-03 VY=-2.498125597102637E-05 VZ=-6.110805734701701E-03
Asteroid physical parameters (km, seconds, rotational period in hours):        
   GM= n.a.                RAD= n.a.               ROTPER= n.a.                
   H= 11.                  G= .150                 B-V= n.a.                   
                           ALBEDO= n.a.            STYP= n.a.                  
*******************************************************************************
 Date__(UT)__HR:MN     R.A._________(ICRF)_________DEC
******************************************************
$$SOE
 2018-Oct-22 08:09  m  02 33 33.958980 +08 18 12.09799
 2018-Oct-22 08:10  m  02 33 33.944409 +08 18 11.92803
 2018-Oct-22 08:11  m  02 33 33.929838 +08 18 11.75807
 2018-Oct-22 08:12  m  02 33 33.915266 +08 18 11.58811
 2018-Oct-22 08:13  m  02 33 33.900693 +08 18 11.41814
 2018-Oct-22 08:14  m  02 33 33.886120 +08 18 11.24818
 2018-Oct-22 08:15  m  02 33 33.871545 +08 18 11.07821
 2018-Oct-22 08:16  m  02 33 33.856970 +08 18 10.90824
 2018-Oct-22 08:17  m  02 33 33.842394 +08 18 10.73827
 2018-Oct-22 08:18  m  02 33 33.827817 +08 18 10.56829
 2018-Oct-22 08:19  m  02 33 33.813240 +08 18 10.39832
 2018-Oct-22 08:20  m  02 33 33.798662 +08 18 10.22834
 2018-Oct-22 08:21  m  02 33 33.784083 +08 18 10.05836
 2018-Oct-22 08:22  m  02 33 33.769503 +08 18 09.88838
 2018-Oct-22 08:23  m  02 33 33.754923 +08 18 09.71840
 2018-Oct-22 08:24  m  02 33 33.740342 +08 18 09.54841
 2018-Oct-22 08:25  m  02 33 33.725760 +08 18 09.37843
 2018-Oct-22 08:26  m  02 33 33.711177 +08 18 09.20844
 2018-Oct-22 08:27  m  02 33 33.696594 +08 18 09.03845
 2018-Oct-22 08:28  m  02 33 33.682010 +08 18 08.86845
 2018-Oct-22 08:29  m  02 33 33.667425 +08 18 08.69846
 2018-Oct-22 08:30  m  02 33 33.652840 +08 18 08.52846
 2018-Oct-22 08:31  m  02 33 33.638253 +08 18 08.35846
 2018-Oct-22 08:32  m  02 33 33.623667 +08 18 08.18846
 2018-Oct-22 08:33  m  02 33 33.609079 +08 18 08.01846
 2018-Oct-22 08:34  m  02 33 33.594491 +08 18 07.84845
 2018-Oct-22 08:35  m  02 33 33.579902 +08 18 07.67845
 2018-Oct-22 08:36  m  02 33 33.565312 +08 18 07.50844
 2018-Oct-22 08:37  m  02 33 33.550722 +08 18 07.33843
 2018-Oct-22 08:38  m  02 33 33.536131 +08 18 07.16841
 2018-Oct-22 08:39  m  02 33 33.521539 +08 18 06.99840
 2018-Oct-22 08:40  m  02 33 33.506947 +08 18 06.82838
 2018-Oct-22 08:41  m  02 33 33.492354 +08 18 06.65836
 2018-Oct-22 08:42  m  02 33 33.477760 +08 18 06.48834
 2018-Oct-22 08:43  m  02 33 33.463166 +08 18 06.31832
 2018-Oct-22 08:44  m  02 33 33.448571 +08 18 06.14829
 2018-Oct-22 08:45  m  02 33 33.433975 +08 18 05.97826
 2018-Oct-22 08:46  m  02 33 33.419379 +08 18 05.80823
 2018-Oct-22 08:47  m  02 33 33.404782 +08 18 05.63820
 2018-Oct-22 08:48  m  02 33 33.390184 +08 18 05.46817
 2018-Oct-22 08:49  m  02 33 33.375586 +08 18 05.29813
 2018-Oct-22 08:50  m  02 33 33.360987 +08 18 05.12809
 2018-Oct-22 08:51  m  02 33 33.346388 +08 18 04.95805
 2018-Oct-22 08:52  m  02 33 33.331787 +08 18 04.78801
 2018-Oct-22 08:53  m  02 33 33.317187 +08 18 04.61797
 2018-Oct-22 08:54  m  02 33 33.302585 +08 18 04.44792
 2018-Oct-22 08:55  m  02 33 33.287984 +08 18 04.27787
 2018-Oct-22 08:56  m  02 33 33.273381 +08 18 04.10782
 2018-Oct-22 08:57  m  02 33 33.258778 +08 18 03.93777
 2018-Oct-22 08:58  m  02 33 33.244174 +08 18 03.76771
 2018-Oct-22 08:59  m  02 33 33.229570 +08 18 03.59766
 2018-Oct-22 09:00  m  02 33 33.214965 +08 18 03.42760
 2018-Oct-22 09:01  m  02 33 33.200359 +08 18 03.25753
 2018-Oct-22 09:02  m  02 33 33.185753 +08 18 03.08747
 2018-Oct-22 09:03  m  02 33 33.171147 +08 18 02.91740
 2018-Oct-22 09:04  m  02 33 33.156540 +08 18 02.74734
 2018-Oct-22 09:05  m  02 33 33.141932 +08 18 02.57727
 2018-Oct-22 09:06  m  02 33 33.127323 +08 18 02.40719
 2018-Oct-22 09:07  m  02 33 33.112715 +08 18 02.23712
 2018-Oct-22 09:08  m  02 33 33.098105 +08 18 02.06704
 2018-Oct-22 09:09  m  02 33 33.083495 +08 18 01.89696
 2018-Oct-22 09:10  m  02 33 33.068885 +08 18 01.72688
 2018-Oct-22 09:11  m  02 33 33.054273 +08 18 01.55680
 2018-Oct-22 09:12  m  02 33 33.039662 +08 18 01.38671
 2018-Oct-22 09:13  m  02 33 33.025050 +08 18 01.21662
 2018-Oct-22 09:14  m  02 33 33.010437 +08 18 01.04653
 2018-Oct-22 09:15  m  02 33 32.995824 +08 18 00.87644
 2018-Oct-22 09:16  m  02 33 32.981210 +08 18 00.70635
 2018-Oct-22 09:17  m  02 33 32.966596 +08 18 00.53625
 2018-Oct-22 09:18  m  02 33 32.951981 +08 18 00.36615
 2018-Oct-22 09:19  m  02 33 32.937366 +08 18 00.19605
 2018-Oct-22 09:20  m  02 33 32.922750 +08 18 00.02595
 2018-Oct-22 09:21  m  02 33 32.908134 +08 17 59.85584
 2018-Oct-22 09:22  m  02 33 32.893517 +08 17 59.68573
 2018-Oct-22 09:23  m  02 33 32.878900 +08 17 59.51562
 2018-Oct-22 09:24  m  02 33 32.864282 +08 17 59.34551
 2018-Oct-22 09:25  m  02 33 32.849664 +08 17 59.17539
 2018-Oct-22 09:26  m  02 33 32.835046 +08 17 59.00528
 2018-Oct-22 09:27  m  02 33 32.820427 +08 17 58.83516
 2018-Oct-22 09:28  m  02 33 32.805807 +08 17 58.66504
 2018-Oct-22 09:29  m  02 33 32.791187 +08 17 58.49491
 2018-Oct-22 09:30  m  02 33 32.776567 +08 17 58.32478
 2018-Oct-22 09:31  m  02 33 32.761946 +08 17 58.15466
 2018-Oct-22 09:32  m  02 33 32.747324 +08 17 57.98453
 2018-Oct-22 09:33  m  02 33 32.732703 +08 17 57.81439
 2018-Oct-22 09:34  m  02 33 32.718080 +08 17 57.64426
 2018-Oct-22 09:35  m  02 33 32.703458 +08 17 57.47412
 2018-Oct-22 09:36  m  02 33 32.688835 +08 17 57.30398
 2018-Oct-22 09:37  m  02 33 32.674211 +08 17 57.13384
 2018-Oct-22 09:38  m  02 33 32.659587 +08 17 56.96369
 2018-Oct-22 09:39  m  02 33 32.644963 +08 17 56.79354
 2018-Oct-22 09:40  m  02 33 32.630338 +08 17 56.62339
 2018-Oct-22 09:41  m  02 33 32.615713 +08 17 56.45324
 2018-Oct-22 09:42  m  02 33 32.601087 +08 17 56.28309
 2018-Oct-22 09:43  m  02 33 32.586461 +08 17 56.11293
 2018-Oct-22 09:44  m  02 33 32.571835 +08 17 55.94277
 2018-Oct-22 09:45  m  02 33 32.557208 +08 17 55.77261
 2018-Oct-22 09:46  m  02 33 32.542581 +08 17 55.60245
 2018-Oct-22 09:47  m  02 33 32.527954 +08 17 55.43228
 2018-Oct-22 09:48  m  02 33 32.513326 +08 17 55.26211
 2018-Oct-22 09:49  m  02 33 32.498698 +08 17 55.09194
 2018-Oct-22 09:50  m  02 33 32.484069 +08 17 54.92177
 2018-Oct-22 09:51  m  02 33 32.469440 +08 17 54.75160
 2018-Oct-22 09:52  m  02 33 32.454811 +08 17 54.58142
 2018-Oct-22 09:53  m  02 33 32.440181 +08 17 54.41124
 2018-Oct-22 09:54  m  02 33 32.425551 +08 17 54.24106
 2018-Oct-22 09:55  m  02 33 32.410921 +08 17 54.07087
 2018-Oct-22 09:56  m  02 33 32.396291 +08 17 53.90068
 2018-Oct-22 09:57  m  02 33 32.381660 +08 17 53.73049
 2018-Oct-22 09:58  m  02 33 32.367028 +08 17 53.56030
 2018-Oct-22 09:59  m  02 33 32.352397 +08 17 53.39011
 2018-Oct-22 10:00  m  02 33 32.337765 +08 17 53.21991
 2018-Oct-22 10:01  m  02 33 32.323133 +08 17 53.04971
 2018-Oct-22 10:02  m  02 33 32.308500 +08 17 52.87951
 2018-Oct-22 10:03  m  02 33 32.293867 +08 17 52.70931
 2018-Oct-22 10:04  m  02 33 32.279234 +08 17 52.53910
 2018-Oct-22 10:05  m  02 33 32.264601 +08 17 52.36889
 2018-Oct-22 10:06  m  02 33 32.249967 +08 17 52.19868
 2018-Oct-22 10:07  m  02 33 32.235333 +08 17 52.02847
 2018-Oct-22 10:08  m  02 33 32.220699 +08 17 51.85825
 2018-Oct-22 10:09  m  02 33 32.206064 +08 17 51.68804
 2018-Oct-22 10:10  m  02 33 32.191430 +08 17 51.51781
 2018-Oct-22 10:11  m  02 33 32.176795 +08 17 51.34759
